QIANFAN-17              
1 60395U 24140S   25311.77531946  .00000039  00000+0  41492-4 0  9993
2 60395  88.9741 303.0557 0013526 312.7431  47.2581 13.50971540 63419
QIANFAN-18              
1 60396U 24140T   25311.82878948  .00000041  00000+0  45059-4 0  9992
2 60396  88.9733 302.5862 0012480 293.3903  66.5935 13.50971596 62811
QIANFAN-19              
1 61552U 24185A   25311.84531160  .00000857  00000+0  44174-3 0  9991
2 61552  88.9800  81.9330 0008703  66.0357 294.1740 14.14238577 64732
QIANFAN-20              
1 61553U 24185B   25311.81391204  .00000778  00000+0  44291-3 0  9994
2 61553  88.9797  82.2252 0007960  96.3990 263.8101 14.08782580 64575
QIANFAN-21              
1 61554U 24185C   25311.79162838  .00001137  00000+0  50273-3 0  9998
2 61554  88.9715  81.0661 0012628 114.0123 246.2392 14.22530626 65004
QIANFAN-22              
1 61555U 24185D   25311.78286932  .00000311  00000+0  25800-3 0  9991
2 61555  88.9780  83.0698 0008504 101.5072 258.7055 13.86283312 64099
QIANFAN-23              
1 61556U 24185E   25311.79923617  .00000857  00000+0  42565-3 0  9993
2 61556  88.9792  81.7644 0009693  74.8263 285.3996 14.16236843 64803
QIANFAN-24              
1 61557U 24185F   25311.82382631  .00001047  00000+0  45204-3 0  9998
2 61557  88.9774  81.2236 0011168  60.1339 300.0961 14.23734521 65057
